[{"OBJECT_NAME":"SUPERVIEW-1 03","OBJECT_ID":"2018-002A","EPOCH":"2026-03-09T22:14:33.880992","MEAN_MOTION":15.35916978,"ECCENTRICITY":0.00509393,"INCLINATION":97.3162,"RA_OF_ASC_NODE":154.1458,"ARG_OF_PERICENTER":177.0269,"MEAN_ANOMALY":183.1288,"EPHEMERIS_TYPE":0,"CLASSIFICATION_TYPE":"U","NORAD_CAT_ID":43099,"ELEMENT_SET_NO":999,"REV_AT_EPOCH":45311,"BSTAR":0.00062641306,"MEAN_MOTION_DOT":0.00022818,"MEAN_MOTION_DDOT":0},{"OBJECT_NAME":"SHIYAN-32 03","OBJECT_ID":"2025-255D","EPOCH":"2026-03-09T22:33:08.924832","MEAN_MOTION":15.40310528,"ECCENTRICITY":0.00080763,"INCLINATION":52.9948,"RA_OF_ASC_NODE":125.0183,"ARG_OF_PERICENTER":220.5672,"MEAN_ANOMALY":139.473,"EPHEMERIS_TYPE":0,"CLASSIFICATION_TYPE":"U","NORAD_CAT_ID":66379,"ELEMENT_SET_NO":999,"REV_AT_EPOCH":1867,"BSTAR":0.00040194929,"MEAN_MOTION_DOT":0.00016094,"MEAN_MOTION_DDOT":0}]
